line1,line2,validFromUtcTime
1 00000U 00000E   26001.00000000  .00000000  00000-0  27772-4 0    01,2 00000  88.8546  90.3332 0010148 270.3962 239.6060 13.55327960    01,2026-01-01T00:00:00Z
1 00000U 00000E   26002.00000000  .00000000  00000-0  27772-4 0    02,2 00000  88.8546  90.2167 0010148 267.4864  78.7851 13.55327999    06,2026-01-02T00:00:00Z
